IRIDIUM 63              
1 25286U 98021B   26023.34471455  .00000848  00000+0  28079-3 0  9997
2 25286  86.4008 349.7547 0001973  84.7391 275.4031 14.36778823455456
IRIDIUM 69              
1 25319U 98026A   26023.44174082  .00000890  00000+0  26946-3 0  9994
2 25319  86.3989   2.3043 0003774  49.9741 310.1789 14.41260788454780
IRIDIUM 71              
1 25320U 98026B   26023.63402740  .00000931  00000+0  28152-3 0  9999
2 25320  86.3994 356.8939 0004290  83.9578 276.2111 14.41354613455344
IRIDIUM 73              
1 25344U 98032C   26023.54055720  .00001233  00000+0  29990-3 0  9991
2 25344  86.4439 313.2296 0002058  67.2741 292.8683 14.52060878462531
IRIDIUM 82              
1 25467U 98051A   26023.52053002  .00076073  00000+0  12194-2 0  9998
2 25467  86.3611   0.0028 0057472 165.7755 194.5140 15.50892948457867
